[{"OBJECT_NAME":"KUIPER-00156","OBJECT_ID":"2025-217P","EPOCH":"2026-03-09T04:41:39.796800","MEAN_MOTION":14.79924864,"ECCENTRICITY":8.23e-5,"INCLINATION":51.9039,"RA_OF_ASC_NODE":27.808,"ARG_OF_PERICENTER":97.2026,"MEAN_ANOMALY":262.903,"EPHEMERIS_TYPE":0,"CLASSIFICATION_TYPE":"U","NORAD_CAT_ID":65775,"ELEMENT_SET_NO":999,"REV_AT_EPOCH":2504,"BSTAR":0.00041878819,"MEAN_MOTION_DOT":2.972e-5,"MEAN_MOTION_DDOT":0},{"OBJECT_NAME":"TITAN 3C TRANSTAGE DEB","OBJECT_ID":"1965-082KX","EPOCH":"2026-03-09T11:54:53.227296","MEAN_MOTION":14.73912767,"ECCENTRICITY":0.00329824,"INCLINATION":32.0547,"RA_OF_ASC_NODE":224.9569,"ARG_OF_PERICENTER":79.7996,"MEAN_ANOMALY":324.1117,"EPHEMERIS_TYPE":0,"CLASSIFICATION_TYPE":"U","NORAD_CAT_ID":2799,"ELEMENT_SET_NO":999,"REV_AT_EPOCH":14143,"BSTAR":0.00030302959,"MEAN_MOTION_DOT":2.085e-5,"MEAN_MOTION_DDOT":0}]
